INTEGRAL                
1 27540U 02048A   21280.08769741  .00000108  00000-0  00000-0 0  9996
2 27540  67.6667  76.3473 8973626 299.9653  57.8192  0.37586371 20208
